SL-16 R/B               
1 25400U 98043G   26005.58414876  .00000122  00000+0  69968-4 0  9997
2 25400  98.8157 318.5397 0009539 191.8036 168.2922 14.26032505429992
SL-16 R/B               
1 25407U 98045B   26005.56827888 -.00000146  00000+0 -49777-4 0  9999
2 25407  71.0126 314.3153 0005441 135.9748 224.1809 14.16181480418168
ISS (ZARYA)             
1 25544U 98067A   26005.53262344  .00012388  00000+0  23158-3 0  9995
2 25544  51.6326  24.6699 0007562 343.7680  16.3066 15.49114570546545
CZ-4B R/B               
1 25732U 99025C   26005.60540103  .00000120  00000+0  78492-4 0  9992
2 25732  98.6733  51.3476 0037420 164.9061 310.0217 14.18250482379228
OKEAN-O                 
1 25860U 99039A   26005.58487336  .00001132  00000+0  15585-3 0  9991
2 25860  97.9566  66.0768 0001412 112.8107 247.3254 14.80211464425050
SL-16 R/B               
1 25861U 99039B   26005.62463934  .00000959  00000+0  12853-3 0  9996
2 25861  98.0089  64.7734 0016124 101.3194 258.9831 14.81629152427527
DELTA 2 R/B             
1 25876U 99041E   26005.57538336  .00002702  00000+0  47242-3 0  9996
2 25876  51.7590 193.2910 0504028 162.0244 199.9252 14.11497397354117
HELIOS 1B               
1 25977U 99064A   26005.61892648  .00002760  00000+0  31155-3 0  9997
2 25977  98.1750 265.9938 0000374  58.4966 301.6285 14.87404191675884
TERRA                   
1 25994U 99068A   26005.64760448  .00000752  00000+0  16259-3 0  9992
2 25994  97.9714  61.4506 0002952  45.5145  68.6095 14.60934957385875
SL-16 R/B               
1 26070U 00006B   26005.63792828  .00000093  00000+0  71325-4 0  9992
2 26070  71.0017 230.4100 0018932 276.5854  83.3114 14.15815649339631
TITAN 4B R/B            
1 26474U 00047B   26005.60682857  .00004302  00000+0  27553-3 0  9992
2 26474  67.9876 217.8160 0037371 115.2756 245.2273 15.08986703383399
ENVISAT                 
1 27386U 02009A   25365.95019499  .00000264  00000+0  99422-4 0  9995
2 27386  98.3626 316.2065 0001107  88.1807 295.1197 14.39007536249430
